KOREASAT 5 (MUGUNGWHA 5)
1 29349U 06034A   26197.72004501 -.00000369  00000+0  00000+0 0  9991
2 29349   1.8594  82.6165 0001643  79.1213 145.0675  1.00273337 41617
DIRECTV 9S              
1 29494U 06043A   26197.82015247 -.00000125  00000+0  00000+0 0  9992
2 29494   2.4954  80.5453 0004962  31.8266  16.3258  1.00271391 51685
OPTUS D1                
1 29495U 06043B   26197.79900568 -.00000196  00000+0  00000+0 0  9996
2 29495   3.1091  79.2915 0003550  34.6103 260.3156  1.00272312 72413
BADR-4                  
1 29526U 06051A   26197.84701831  .00000144  00000+0  00000+0 0  9990
2 29526   2.0795  80.7939 0004799  32.1545 161.0945  1.00272224 51567
WILDBLUE-1              
1 29643U 06054A   26197.60434998 -.00000061  00000+0  00000+0 0  9993
2 29643   2.8771  80.1127 0001353  43.0102 277.6640  1.00271531 54081
SKYNET 5A               
1 30794U 07007B   26197.85233477 -.00000283  00000+0  00000+0 0  9993
2 30794   5.3729  73.3769 0003692  47.5203 215.8041  1.00268742 70993
ANIK F3                 
1 31102U 07009A   26197.89630012 -.00000012  00000+0  00000+0 0  9999
2 31102   1.2726  83.4930 0002510  31.5355  23.6318  1.00271579 46863
ASTRA 1L                
1 31306U 07016A   26197.84003088 -.00000196  00000+0  00000+0 0  9998
2 31306   1.3965  81.3355 0005279  35.2157  96.0138  1.00271004 45281
GALAXY 17 (G-17)        
1 31307U 07016B   26197.82335913 -.00000218  00000+0  00000+0 0  9997
2 31307   3.0446  79.5257 0003610  35.1909  31.3175  1.00271492 70109
INTELSAT 11 (IS-11)     
1 32253U 07044B   26197.83928404 -.00000201  00000+0  00000+0 0  9995
2 32253   3.6408  78.3092 0004268 100.1846  53.6942  0.99052640 68746
WGS F1 (USA 195)        
1 32258U 07046A   26197.40407233 -.00000278  00000+0  00000+0 0  9991
2 32258   0.0160  66.1444 0000290 146.1759 184.8706  1.00271171 52627
SKYNET 5B               
1 32294U 07056B   26197.81780765  .00000127  00000+0  00000+0 0  9993
2 32294   5.3245  73.1473 0003721  45.6808 135.3550  1.00275449 68491
ASTRA 4A                
1 32299U 07057A   26197.82892022  .00000022  00000+0  00000+0 0  9994
2 32299   0.0368 288.8956 0002367 191.9168 117.0398  1.00271883 51941
HORIZONS-2              
1 32388U 07063B   26197.82561249 -.00000265  00000+0  00000+0 0  9994
2 32388   2.6766  80.2603 0003545  16.6797  61.1138  1.00273133 68111
THURAYA-3               
1 32404U 08001A   26197.73725264 -.00000003  00000+0  00000+0 0  9995
2 32404   6.0386  35.8252 0002178  77.7656 150.0758  1.00272348 67780
THOR 5                  
1 32487U 08006A   26197.82892022 -.00000020  00000+0  00000+0 0  9997
2 32487   0.0281 233.0018 0002429 251.3059 107.9939  1.00271893 67615
AMC-14                  
1 32708U 08011A   26197.00057522 -.00000193  00000+0  00000+0 0  9998
2 32708  24.0434  20.1720 0039593   8.4398 344.6203  1.00420354 68456
DIRECTV 11              
1 32729U 08013A   26197.84028122 -.00000136  00000+0  00000+0 0  9996
2 32729   0.0072 267.6426 0000145 337.1313 253.2033  1.00271122 45898
ICO G1                  
1 32763U 08016A   26197.53669056 -.00000184  00000+0  00000+0 0  9993
2 32763   5.5251  36.0244 0002294  69.4220 289.2777  1.00272976 66839
VINASAT-1               
1 32767U 08018A   26197.79475899 -.00000339  00000+0  00000+0 0  9999
2 32767   0.0476 267.4052 0001599 226.0887 219.1674  1.00269960 66888
STAR ONE C2             
1 32768U 08018B   26197.82730284 -.00000288  00000+0  00000+0 0  9999
2 32768   1.3142  82.1804 0002822  50.0912  35.1983  1.00270353 66959
AMOS-3                  
1 32794U 08022A   26197.85239168 -.00000018  00000+0  00000+0 0  9992
2 32794   0.5299  85.7856 0003072  83.8463 133.4560  1.00488840 82639
GALAXY 18 (G-18)        
1 32951U 08024A   26197.60200997  .00000015  00000+0  00000+0 0  9996
2 32951   0.0137  74.1550 0002825  40.3684 273.6113  1.00270713 46146
ZHONGXING-9             
1 33051U 08028A   26197.85845837 -.00000259  00000+0  00000+0 0  9998
2 33051   0.8427  84.9342 0003255  30.2002 220.9352  1.00268779 66338
SKYNET 5C               
1 33055U 08030A   26197.83668404 -.00000152  00000+0  00000+0 0  9998
2 33055   3.8629  76.6873 0004171  46.9685  94.4167  1.00272296 66253
TURKSAT 3A              
1 33056U 08030B   26197.81572586  .00000136  00000+0  00000+0 0  9993
2 33056   0.0393  76.0683 0004917  20.4471 173.7545  1.00271215 52652
ECHOSTAR 11             
1 33207U 08035A   26197.60460998 -.00000069  00000+0  00000+0 0  9992
2 33207   1.0795  83.8388 0002242  21.7465 296.6972  1.00271050 51500
SUPERBIRD-C2            
1 33274U 08038A   26197.79588567 -.00000318  00000+0  00000+0 0  9999
2 33274   2.4355  80.8947 0006223  38.6106 237.6346  1.00272242106023
INMARSAT 4-F3           
1 33278U 08039A   26197.53565053 -.00000152  00000+0  00000+0 0  9997
2 33278   4.3178  31.6986 0002779  89.4960 268.0157  1.00272077 46838
NIMIQ 4                 
1 33373U 08044A   26197.82396580 -.00000231  00000+0  00000+0 0  9996
2 33373   0.0130  38.4540 0001902  63.9671  46.8571  1.00271363 65288
GALAXY 19 (G-19)        
1 33376U 08045A   26197.82101912 -.00000149  00000+0  00000+0 0  9991
2 33376   0.0523 244.4441 0002393 241.0410   7.7292  1.00270935 65203
ASTRA 1M                
1 33436U 08057A   26197.82336531  .00000110  00000+0  00000+0 0  9995
2 33436   0.3708  82.7881 0004509  42.1063 125.5322  1.00270347 46034
