OBJECT_NAME,OBJECT_ID,EPOCH,MEAN_MOTION,ECCENTRICITY,INCLINATION,RA_OF_ASC_NODE,ARG_OF_PERICENTER,MEAN_ANOMALY,EPHEMERIS_TYPE,CLASSIFICATION_TYPE,NORAD_CAT_ID,ELEMENT_SET_NO,REV_AT_EPOCH,BSTAR,MEAN_MOTION_DOT,MEAN_MOTION_DDOT
KOREASAT 5 (MUGUNGWHA 5),2006-034A,2026-07-16T17:16:51.888864,1.00273337,.0001643,1.8594,82.6165,79.1213,145.0675,0,U,29349,999,4161,0,-.369E-5,0
DIRECTV 9S,2006-043A,2026-07-16T19:41:01.173408,1.00271391,.0004962,2.4954,80.5453,31.8266,16.3258,0,U,29494,999,5168,0,-.125E-5,0
OPTUS D1,2006-043B,2026-07-16T19:10:34.090752,1.00272312,.000355,3.1091,79.2915,34.6103,260.3156,0,U,29495,999,7241,0,-.196E-5,0
BADR-4,2006-051A,2026-07-16T20:19:42.381984,1.00272224,.0004799,2.0795,80.7939,32.1545,161.0945,0,U,29526,999,5156,0,.144E-5,0
WILDBLUE-1,2006-054A,2026-07-16T14:30:15.838272,1.00271531,.0001353,2.8771,80.1127,43.0102,277.6640,0,U,29643,999,5408,0,-.61E-6,0
SKYNET 5A,2007-007B,2026-07-16T20:27:21.724128,1.00268742,.0003692,5.3729,73.3769,47.5203,215.8041,0,U,30794,999,7099,0,-.283E-5,0
ANIK F3,2007-009A,2026-07-16T21:30:40.330368,1.00271579,.000251,1.2726,83.4930,31.5355,23.6318,0,U,31102,999,4686,0,-.12E-6,0
ASTRA 1L,2007-016A,2026-07-16T20:09:38.668032,1.00271004,.0005279,1.3965,81.3355,35.2157,96.0138,0,U,31306,999,4528,0,-.196E-5,0
GALAXY 17 (G-17),2007-016B,2026-07-16T19:45:38.228832,1.00271492,.000361,3.0446,79.5257,35.1909,31.3175,0,U,31307,999,7010,0,-.218E-5,0
INTELSAT 11 (IS-11),2007-044B,2026-07-16T20:08:34.141056,0.99052640,.0004268,3.6408,78.3092,100.1846,53.6942,0,U,32253,999,6874,0,-.201E-5,0
WGS F1 (USA 195),2007-046A,2026-07-16T09:41:51.849312,1.00271171,.000029,0.0160,66.1444,146.1759,184.8706,0,U,32258,999,5262,0,-.278E-5,0
SKYNET 5B,2007-056B,2026-07-16T19:37:38.580960,1.00275449,.0003721,5.3245,73.1473,45.6808,135.3550,0,U,32294,999,6849,0,.127E-5,0
ASTRA 4A,2007-057A,2026-07-16T19:53:38.707008,1.00271883,.0002367,0.0368,288.8956,191.9168,117.0398,0,U,32299,999,5194,0,.22E-6,0
HORIZONS-2,2007-063B,2026-07-16T19:48:52.919136,1.00273133,.0003545,2.6766,80.2603,16.6797,61.1138,0,U,32388,999,6811,0,-.265E-5,0
THURAYA-3,2008-001A,2026-07-16T17:41:38.628096,1.00272348,.0002178,6.0386,35.8252,77.7656,150.0758,0,U,32404,999,6778,0,-.3E-7,0
THOR 5,2008-006A,2026-07-16T19:53:38.707008,1.00271893,.0002429,0.0281,233.0018,251.3059,107.9939,0,U,32487,999,6761,0,-.2E-6,0
AMC-14,2008-011A,2026-07-16T00:00:49.699008,1.00420354,.00395939,24.0434,20.1720,8.4398,344.6203,0,U,32708,999,6845,0,-.193E-5,0
DIRECTV 11,2008-013A,2026-07-16T20:10:00.297408,1.00271122,.0000145,0.0072,267.6426,337.1313,253.2033,0,U,32729,999,4589,0,-.136E-5,0
ICO G1,2008-016A,2026-07-16T12:52:50.064384,1.00272976,.0002294,5.5251,36.0244,69.4220,289.2777,0,U,32763,999,6683,0,-.184E-5,0
VINASAT-1,2008-018A,2026-07-16T19:04:27.176736,1.00269960,.0001599,0.0476,267.4052,226.0887,219.1674,0,U,32767,999,6688,0,-.339E-5,0
STAR ONE C2,2008-018B,2026-07-16T19:51:18.965376,1.00270353,.0002822,1.3142,82.1804,50.0912,35.1983,0,U,32768,999,6695,0,-.288E-5,0
AMOS-3,2008-022A,2026-07-16T20:27:26.641152,1.00488840,.0003072,0.5299,85.7856,83.8463,133.4560,0,U,32794,999,8263,0,-.18E-6,0
GALAXY 18 (G-18),2008-024A,2026-07-16T14:26:53.661408,1.00270713,.0002825,0.0137,74.1550,40.3684,273.6113,0,U,32951,999,4614,0,.15E-6,0
ZHONGXING-9,2008-028A,2026-07-16T20:36:10.803168,1.00268779,.0003255,0.8427,84.9342,30.2002,220.9352,0,U,33051,999,6633,0,-.259E-5,0
SKYNET 5C,2008-030A,2026-07-16T20:04:49.501056,1.00272296,.0004171,3.8629,76.6873,46.9685,94.4167,0,U,33055,999,6625,0,-.152E-5,0
TURKSAT 3A,2008-030B,2026-07-16T19:34:38.714304,1.00271215,.0004917,0.0393,76.0683,20.4471,173.7545,0,U,33056,999,5265,0,.136E-5,0
ECHOSTAR 11,2008-035A,2026-07-16T14:30:38.302272,1.00271050,.0002242,1.0795,83.8388,21.7465,296.6972,0,U,33207,999,5150,0,-.69E-6,0
SUPERBIRD-C2,2008-038A,2026-07-16T19:06:04.521888,1.00272242,.0006223,2.4355,80.8947,38.6106,237.6346,0,U,33274,999,10602,0,-.318E-5,0
INMARSAT 4-F3,2008-039A,2026-07-16T12:51:20.205792,1.00272077,.0002779,4.3178,31.6986,89.4960,268.0157,0,U,33278,999,4683,0,-.152E-5,0
NIMIQ 4,2008-044A,2026-07-16T19:46:30.645120,1.00271363,.0001902,0.0130,38.4540,63.9671,46.8571,0,U,33373,999,6528,0,-.231E-5,0
GALAXY 19 (G-19),2008-045A,2026-07-16T19:42:16.051968,1.00270935,.0002393,0.0523,244.4441,241.0410,7.7292,0,U,33376,999,6520,0,-.149E-5,0
ASTRA 1M,2008-057A,2026-07-16T19:45:38.762784,1.00270347,.0004509,0.3708,82.7881,42.1063,125.5322,0,U,33436,999,4603,0,.11E-5,0
